start=new Date('2022-08-21T00:00:00.000Z').valueOf();
sats=[{"MEAN_ANOMALY":"297.8489","CENTER_NAME":"EARTH","REV_AT_EPOCH":"13424","MEAN_MOTION_DDOT":"0.0000000000000","CLASSIFICATION_TYPE":"U","COUNTRY_CODE":"US","RA_OF_ASC_NODE":"229.0207","SEMIMAJOR_AXIS":"6925.363","OBJECT_ID":"2020-019N","MEAN_MOTION":"15.06395335","EPHEMERIS_TYPE":"0","REF_FRAME":"TEME","NORAD_CAT_ID":"45372","OBJECT_TYPE":"PAYLOAD","RCS_SIZE":"LARGE","PERIAPSIS":"546.190","ECCENTRICITY":"0.00014990","INCLINATION":"53.0519","BSTAR":"0.00002815500000","TLE_LINE2":"2 45372  53.0519 229.0207 0001499  62.2651 297.8489 15.06395335134244","MEAN_ELEMENT_THEORY":"SGP4","MEAN_MOTION_DOT":"0.00000138","FILE":"3541760","DECAY_DATE":null,"OBJECT_NAME":"STARLINK-1288","TIME_SYSTEM":"UTC","GP_ID":"210616541","SITE":"AFETR","APOAPSIS":"548.266","ELEMENT_SET_NO":"999","TLE_LINE1":"1 45372U 20019N   22232.70215805  .00000138  00000-0  28155-4 0  9999","LAUNCH_DATE":"2020-03-18","PERIOD":"95.592","ARG_OF_PERICENTER":"62.2651","EPOCH":"2022-08-20T16:51:06.455520"},{"COUNTRY_CODE":"US","RA_OF_ASC_NODE":"229.9929","CLASSIFICATION_TYPE":"U","MEAN_MOTION_DDOT":"0.0000000000000","CENTER_NAME":"EARTH","MEAN_ANOMALY":"286.4120","REV_AT_EPOCH":"13421","OBJECT_TYPE":"PAYLOAD","NORAD_CAT_ID":"45373","RCS_SIZE":"LARGE","REF_FRAME":"TEME","EPHEMERIS_TYPE":"0","MEAN_MOTION":"15.06388945","SEMIMAJOR_AXIS":"6925.382","OBJECT_ID":"2020-019P","TLE_LINE2":"2 45373  53.0541 229.9929 0001379  73.7021 286.4120 15.06388945134217","BSTAR":"0.00009141000000","INCLINATION":"53.0541","ECCENTRICITY":"0.00013790","PERIAPSIS":"546.292","TLE_LINE1":"1 45373U 20019P   22232.48470402  .00001080  00000-0  91410-4 0  9992","ELEMENT_SET_NO":"999","PERIOD":"95.593","ARG_OF_PERICENTER":"73.7021","EPOCH":"2022-08-20T11:37:58.427328","LAUNCH_DATE":"2020-03-18","SITE":"AFETR","APOAPSIS":"548.202","OBJECT_NAME":"STARLINK-1295","GP_ID":"210584979","TIME_SYSTEM":"UTC","DECAY_DATE":null,"FILE":"3541419","MEAN_MOTION_DOT":"0.00001080","MEAN_ELEMENT_THEORY":"SGP4"},{"OBJECT_ID":"2020-019Q","SEMIMAJOR_AXIS":"6925.357","MEAN_MOTION":"15.06397137","REF_FRAME":"TEME","EPHEMERIS_TYPE":"0","RCS_SIZE":"LARGE","OBJECT_TYPE":"PAYLOAD","NORAD_CAT_ID":"45374","REV_AT_EPOCH":"13420","CENTER_NAME":"EARTH","MEAN_ANOMALY":"280.7039","MEAN_MOTION_DDOT":"0.0000000000000","RA_OF_ASC_NODE":"230.3127","COUNTRY_CODE":"US","CLASSIFICATION_TYPE":"U","DECAY_DATE":null,"FILE":"3541419","MEAN_ELEMENT_THEORY":"SGP4","MEAN_MOTION_DOT":"0.00000620","GP_ID":"210583728","TIME_SYSTEM":"UTC","OBJECT_NAME":"STARLINK-1300","APOAPSIS":"548.225","SITE":"AFETR","EPOCH":"2022-08-20T09:57:06.673248","PERIOD":"95.592","ARG_OF_PERICENTER":"79.4113","LAUNCH_DATE":"2020-03-18","TLE_LINE1":"1 45374U 20019Q   22232.41466057  .00000620  00000-0  60532-4 0  9997","ELEMENT_SET_NO":"999","PERIAPSIS":"546.220","ECCENTRICITY":"0.00014480","INCLINATION":"53.0538","BSTAR":"0.00006053200000","TLE_LINE2":"2 45374  53.0538 230.3127 0001448  79.4113 280.7039 15.06397137134200"},{"PERIAPSIS":"546.198","ECCENTRICITY":"0.00014930","INCLINATION":"53.0521","TLE_LINE2":"2 45375  53.0521 229.9375 0001493  69.4773 290.6376 15.06393866134213","BSTAR":"-0.00011969000000","MEAN_MOTION_DOT":"-0.00002064","MEAN_ELEMENT_THEORY":"SGP4","FILE":"3541419","DECAY_DATE":null,"TIME_SYSTEM":"UTC","GP_ID":"210583977","OBJECT_NAME":"STARLINK-1302","APOAPSIS":"548.266","SITE":"AFETR","LAUNCH_DATE":"2020-03-18","PERIOD":"95.593","EPOCH":"2022-08-20T11:53:52.528704","ARG_OF_PERICENTER":"69.4773","ELEMENT_SET_NO":"999","TLE_LINE1":"1 45375U 20019R   22232.49574686 -.00002064  00000-0 -11969-3 0  9999","REV_AT_EPOCH":"13421","MEAN_ANOMALY":"290.6376","CENTER_NAME":"EARTH","MEAN_MOTION_DDOT":"0.0000000000000","CLASSIFICATION_TYPE":"U","RA_OF_ASC_NODE":"229.9375","COUNTRY_CODE":"US","OBJECT_ID":"2020-019R","SEMIMAJOR_AXIS":"6925.367","MEAN_MOTION":"15.06393866","EPHEMERIS_TYPE":"0","REF_FRAME":"TEME","RCS_SIZE":"LARGE","NORAD_CAT_ID":"45375","OBJECT_TYPE":"PAYLOAD"},{"TLE_LINE2":"2 45376  53.0528 228.9713 0001638  74.4459 285.6710 15.06390855134248","BSTAR":"0.00001958900000","INCLINATION":"53.0528","ECCENTRICITY":"0.00016380","PERIAPSIS":"546.107","TLE_LINE1":"1 45376U 20019S   22232.71322260  .00000010  00000-0  19589-4 0  9998","ELEMENT_SET_NO":"999","ARG_OF_PERICENTER":"74.4459","PERIOD":"95.593","EPOCH":"2022-08-20T17:07:02.432640","LAUNCH_DATE":"2020-03-18","SITE":"AFETR","APOAPSIS":"548.376","OBJECT_NAME":"STARLINK-1304","GP_ID":"210617041","TIME_SYSTEM":"UTC","FILE":"3541760","DECAY_DATE":null,"MEAN_MOTION_DOT":"0.00000010","MEAN_ELEMENT_THEORY":"SGP4","COUNTRY_CODE":"US","RA_OF_ASC_NODE":"228.9713","CLASSIFICATION_TYPE":"U","MEAN_MOTION_DDOT":"0.0000000000000","CENTER_NAME":"EARTH","MEAN_ANOMALY":"285.6710","REV_AT_EPOCH":"13424","OBJECT_TYPE":"PAYLOAD","NORAD_CAT_ID":"45376","RCS_SIZE":"LARGE","REF_FRAME":"TEME","EPHEMERIS_TYPE":"0","MEAN_MOTION":"15.06390855","SEMIMAJOR_AXIS":"6925.377","OBJECT_ID":"2020-019S"},{"MEAN_ANOMALY":"282.7512","CENTER_NAME":"EARTH","REV_AT_EPOCH":"13421","MEAN_MOTION_DDOT":"0.0000000000000","CLASSIFICATION_TYPE":"U","RA_OF_ASC_NODE":"230.0373","COUNTRY_CODE":"US","SEMIMAJOR_AXIS":"6925.349","OBJECT_ID":"2020-019T","MEAN_MOTION":"15.06399844","EPHEMERIS_TYPE":"0","REF_FRAME":"TEME","NORAD_CAT_ID":"45377","OBJECT_TYPE":"PAYLOAD","RCS_SIZE":"LARGE","PERIAPSIS":"546.087","ECCENTRICITY":"0.00016280","INCLINATION":"53.0532","TLE_LINE2":"2 45377  53.0532 230.0373 0001628  77.3659 282.7512 15.06399844134215","BSTAR":"0.00001464600000","MEAN_MOTION_DOT":"-0.00000063","MEAN_ELEMENT_THEORY":"SGP4","DECAY_DATE":null,"FILE":"3541419","OBJECT_NAME":"STARLINK-1305","TIME_SYSTEM":"UTC","GP_ID":"210584480","SITE":"AFETR","APOAPSIS":"548.341","ELEMENT_SET_NO":"999","TLE_LINE1":"1 45377U 20019T   22232.47363613 -.00000063  00000-0  14646-4 0  9997","LAUNCH_DATE":"2020-03-18","PERIOD":"95.592","ARG_OF_PERICENTER":"77.3659","EPOCH":"2022-08-20T11:22:02.161632"},{"INCLINATION":"53.0529","BSTAR":"0.00013148000000","TLE_LINE2":"2 45378  53.0529 230.0861 0001366  65.9969 294.1163 15.06397988134216","PERIAPSIS":"546.274","ECCENTRICITY":"0.00013660","APOAPSIS":"548.166","SITE":"AFETR","LAUNCH_DATE":"2020-03-18","ARG_OF_PERICENTER":"65.9969","PERIOD":"95.592","EPOCH":"2022-08-20T11:06:05.780160","ELEMENT_SET_NO":"999","TLE_LINE1":"1 45378U 20019U   22232.46256690  .00001677  00000-0  13148-3 0  9999","MEAN_ELEMENT_THEORY":"SGP4","MEAN_MOTION_DOT":"0.00001677","DECAY_DATE":null,"FILE":"3541419","TIME_SYSTEM":"UTC","GP_ID":"210583230","OBJECT_NAME":"STARLINK-1310","CLASSIFICATION_TYPE":"U","COUNTRY_CODE":"US","RA_OF_ASC_NODE":"230.0861","REV_AT_EPOCH":"13421","MEAN_ANOMALY":"294.1163","CENTER_NAME":"EARTH","MEAN_MOTION_DDOT":"0.0000000000000","EPHEMERIS_TYPE":"0","REF_FRAME":"TEME","RCS_SIZE":"LARGE","NORAD_CAT_ID":"45378","OBJECT_TYPE":"PAYLOAD","OBJECT_ID":"2020-019U","SEMIMAJOR_AXIS":"6925.355","MEAN_MOTION":"15.06397988"},{"MEAN_MOTION_DOT":"-0.00000181","MEAN_ELEMENT_THEORY":"SGP4","FILE":"3541760","DECAY_DATE":null,"OBJECT_NAME":"STARLINK-1319","TIME_SYSTEM":"UTC","GP_ID":"210617766","SITE":"AFETR","APOAPSIS":"548.631","ELEMENT_SET_NO":"999","TLE_LINE1":"1 45379U 20019V   22232.73164769 -.00000181  00000-0  67796-5 0  9995","LAUNCH_DATE":"2020-03-18","EPOCH":"2022-08-20T17:33:34.360416","PERIOD":"95.593","ARG_OF_PERICENTER":"57.0162","PERIAPSIS":"545.855","ECCENTRICITY":"0.00020040","INCLINATION":"53.0543","BSTAR":"0.00000677960000","TLE_LINE2":"2 45379  53.0543 228.8872 0002004  57.0162 303.1020 15.06390448134258","SEMIMAJOR_AXIS":"6925.378","OBJECT_ID":"2020-019V","MEAN_MOTION":"15.06390448","EPHEMERIS_TYPE":"0","REF_FRAME":"TEME","NORAD_CAT_ID":"45379","OBJECT_TYPE":"PAYLOAD","RCS_SIZE":"LARGE","MEAN_ANOMALY":"303.1020","CENTER_NAME":"EARTH","REV_AT_EPOCH":"13425","MEAN_MOTION_DDOT":"0.0000000000000","CLASSIFICATION_TYPE":"U","COUNTRY_CODE":"US","RA_OF_ASC_NODE":"228.8872"},{"ECCENTRICITY":"0.00014700","PERIAPSIS":"546.216","TLE_LINE2":"2 45380  53.0552 210.0933 0001470  70.1194 289.9953 15.06393395134483","BSTAR":"0.00006845800000","INCLINATION":"53.0552","TIME_SYSTEM":"UTC","GP_ID":"210584729","OBJECT_NAME":"STARLINK-1207","FILE":"3541419","DECAY_DATE":null,"MEAN_MOTION_DOT":"0.00000738","MEAN_ELEMENT_THEORY":"SGP4","ARG_OF_PERICENTER":"70.1194","PERIOD":"95.593","EPOCH":"2022-08-20T11:08:45.767904","LAUNCH_DATE":"2020-03-18","TLE_LINE1":"1 45380U 20019W   22232.46441861  .00000738  00000-0  68458-4 0  9990","ELEMENT_SET_NO":"999","APOAPSIS":"548.252","SITE":"AFETR","MEAN_MOTION_DDOT":"0.0000000000000","REV_AT_EPOCH":"13448","CENTER_NAME":"EARTH","MEAN_ANOMALY":"289.9953","COUNTRY_CODE":"US","RA_OF_ASC_NODE":"210.0933","CLASSIFICATION_TYPE":"U","MEAN_MOTION":"15.06393395","OBJECT_ID":"2020-019W","SEMIMAJOR_AXIS":"6925.369","RCS_SIZE":"LARGE","OBJECT_TYPE":"PAYLOAD","NORAD_CAT_ID":"45380","REF_FRAME":"TEME","EPHEMERIS_TYPE":"0"},{"SITE":"AFETR","APOAPSIS":"548.152","TLE_LINE1":"1 45381U 20019X   22232.34277828 -.00000748  00000-0 -31334-4 0  9994","ELEMENT_SET_NO":"999","EPOCH":"2022-08-20T08:13:36.043392","PERIOD":"95.592","ARG_OF_PERICENTER":"89.8330","LAUNCH_DATE":"2020-03-18","FILE":"3541419","DECAY_DATE":null,"MEAN_ELEMENT_THEORY":"SGP4","MEAN_MOTION_DOT":"-0.00000748","OBJECT_NAME":"STARLINK-1258","GP_ID":"210584980","TIME_SYSTEM":"UTC","INCLINATION":"53.0529","TLE_LINE2":"2 45381  53.0529 210.6434 0001331  89.8330 270.2812 15.06394593134461","BSTAR":"-0.00003133400000","PERIAPSIS":"546.308","ECCENTRICITY":"0.00013310","REF_FRAME":"TEME","EPHEMERIS_TYPE":"0","OBJECT_TYPE":"PAYLOAD","NORAD_CAT_ID":"45381","RCS_SIZE":"LARGE","SEMIMAJOR_AXIS":"6925.365","OBJECT_ID":"2020-019X","MEAN_MOTION":"15.06394593","RA_OF_ASC_NODE":"210.6434","COUNTRY_CODE":"US","CLASSIFICATION_TYPE":"U","CENTER_NAME":"EARTH","MEAN_ANOMALY":"270.2812","REV_AT_EPOCH":"13446","MEAN_MOTION_DDOT":"0.0000000000000"}];
